STARLINK-4588           
1 53641U 22104BF  24037.30938615 -.00000518  00000+0 -14476-4 0  9990
2 53641  53.2180  46.4414 0001810 101.0450 259.0746 15.08839194 81138
STARLINK-4622           
1 53648U 22105A   24038.14163939  .00000047  00000+0  82450-5 0  9993
2 53648  97.6559 280.8615 0005590  60.6658 299.5124 15.01262107 79271
STARLINK-4386           
1 53649U 22105B   24037.67321610  .00000968  00000+0  79959-4 0  9994
2 53649  97.6552 280.3991 0004778  60.8114 299.3587 15.01262804 78907
STARLINK-4380           
1 53650U 22105C   24037.67136251  .00000961  00000+0  79420-4 0  9997
2 53650  97.6544 280.3973 0005449  56.5044 303.6701 15.01268504 78900
STARLINK-4388           
1 53651U 22105D   24037.66951197  .00000877  00000+0  72877-4 0  9996
2 53651  97.6539 280.3939 0004502  53.2944 306.8693 15.01264276 78906
STARLINK-4374           
1 53652U 22105E   24038.13422511  .00003056  00000+0  24235-3 0  9999
2 53652  97.6553 280.8490 0002456  66.2781 293.8700 15.01267336 79252
STARLINK-4390           
1 53653U 22105F   24038.15275013  .00000561  00000+0  48287-4 0  9997
2 53653  97.6577 280.8220 0003046  78.1100 282.0466 15.01257042 79255
STARLINK-4420           
1 53654U 22105G   24037.66210341  .00000405  00000+0  36119-4 0  9994
2 53654  97.6534 280.3804 0003351  43.4646 316.6842 15.01265274 79181
STARLINK-4470           
1 53655U 22105H   24037.66580673  .00001334  00000+0  10843-3 0  9990
2 53655  97.6530 280.3873 0003748  53.9213 306.2358 15.01265911 79185
STARLINK-4466           
1 53656U 22105J   24037.65657634 -.00003495  00000+0 -26783-3 0  9994
2 53656  97.6542 280.3760 0002131  94.7565 265.3903 15.01235506 78909
STARLINK-4469           
1 53657U 22105K   24037.66395463  .00001799  00000+0  14457-3 0  9993
2 53657  97.6529 280.3835 0003500  58.0007 302.1557 15.01265845 79188
STARLINK-4452           
1 53658U 22105L   24037.65840104 -.00000631  00000+0 -44536-4 0  9998
2 53658  97.6543 280.3734 0002210  78.3007 281.8465 15.01262085 78908
STARLINK-4463           
1 53659U 22105M   24037.66049452  .00000624  00000+0  53202-4 0  9997
2 53659  97.6550 280.3805 0002533  72.9792 287.1710 15.01265509 79182
STARLINK-4473           
1 53660U 22105N   24037.65284315  .00000350  00000+0  31824-4 0  9999
2 53660  97.6546 280.3646 0001648  97.4428 262.6983 15.01263193 78902
STARLINK-4472           
1 53661U 22105P   24037.65494005 -.00000196  00000+0 -10682-4 0  9998
2 53661  97.6551 280.3721 0001894  97.2170 262.9270 15.01273281 78909
STARLINK-4357           
1 53662U 22105Q   24037.64938375  .00002137  00000+0  17088-3 0  9992
2 53662  97.6538 280.3621 0001343  96.4174 263.7203 15.01268650 78907
STARLINK-4457           
1 53663U 22105R   24037.65469690  .00000169  00000+0  17730-4 0  9991
2 53663  97.6538 280.3673 0002264  83.9950 276.1532 15.01264399 78900
