[{"OBJECT_NAME":"STARLINK-4588","OBJECT_ID":"2022-104BF","EPOCH":"2024-02-06T07:25:30.963360","MEAN_MOTION":15.08839194,"ECCENTRICITY":0.000181,"INCLINATION":53.218,"RA_OF_ASC_NODE":46.4414,"ARG_OF_PERICENTER":101.045,"MEAN_ANOMALY":259.0746,"EPHEMERIS_TYPE":0,"CLASSIFICATION_TYPE":"U","NORAD_CAT_ID":53641,"ELEMENT_SET_NO":999,"REV_AT_EPOCH":8113,"BSTAR":-1.4476e-5,"MEAN_MOTION_DOT":-5.18e-6,"MEAN_MOTION_DDOT":0},{"OBJECT_NAME":"STARLINK-4622","OBJECT_ID":"2022-105A","EPOCH":"2024-02-07T03:23:57.643296","MEAN_MOTION":15.01262107,"ECCENTRICITY":0.000559,"INCLINATION":97.6559,"RA_OF_ASC_NODE":280.8615,"ARG_OF_PERICENTER":60.6658,"MEAN_ANOMALY":299.5124,"EPHEMERIS_TYPE":0,"CLASSIFICATION_TYPE":"U","NORAD_CAT_ID":53648,"ELEMENT_SET_NO":999,"REV_AT_EPOCH":7927,"BSTAR":8.245e-6,"MEAN_MOTION_DOT":4.7e-7,"MEAN_MOTION_DDOT":0},{"OBJECT_NAME":"STARLINK-4386","OBJECT_ID":"2022-105B","EPOCH":"2024-02-06T16:09:25.871040","MEAN_MOTION":15.01262804,"ECCENTRICITY":0.0004778,"INCLINATION":97.6552,"RA_OF_ASC_NODE":280.3991,"ARG_OF_PERICENTER":60.8114,"MEAN_ANOMALY":299.3587,"EPHEMERIS_TYPE":0,"CLASSIFICATION_TYPE":"U","NORAD_CAT_ID":53649,"ELEMENT_SET_NO":999,"REV_AT_EPOCH":7890,"BSTAR":7.9959e-5,"MEAN_MOTION_DOT":9.68e-6,"MEAN_MOTION_DDOT":0},{"OBJECT_NAME":"STARLINK-4380","OBJECT_ID":"2022-105C","EPOCH":"2024-02-06T16:06:45.720864","MEAN_MOTION":15.01268504,"ECCENTRICITY":0.0005449,"INCLINATION":97.6544,"RA_OF_ASC_NODE":280.3973,"ARG_OF_PERICENTER":56.5044,"MEAN_ANOMALY":303.6701,"EPHEMERIS_TYPE":0,"CLASSIFICATION_TYPE":"U","NORAD_CAT_ID":53650,"ELEMENT_SET_NO":999,"REV_AT_EPOCH":7890,"BSTAR":7.942e-5,"MEAN_MOTION_DOT":9.61e-6,"MEAN_MOTION_DDOT":0},{"OBJECT_NAME":"STARLINK-4388","OBJECT_ID":"2022-105D","EPOCH":"2024-02-06T16:04:05.834208","MEAN_MOTION":15.01264276,"ECCENTRICITY":0.0004502,"INCLINATION":97.6539,"RA_OF_ASC_NODE":280.3939,"ARG_OF_PERICENTER":53.2944,"MEAN_ANOMALY":306.8693,"EPHEMERIS_TYPE":0,"CLASSIFICATION_TYPE":"U","NORAD_CAT_ID":53651,"ELEMENT_SET_NO":999,"REV_AT_EPOCH":7890,"BSTAR":7.2877e-5,"MEAN_MOTION_DOT":8.77e-6,"MEAN_MOTION_DDOT":0},{"OBJECT_NAME":"STARLINK-4374","OBJECT_ID":"2022-105E","EPOCH":"2024-02-07T03:13:17.049504","MEAN_MOTION":15.01267336,"ECCENTRICITY":0.0002456,"INCLINATION":97.6553,"RA_OF_ASC_NODE":280.849,"ARG_OF_PERICENTER":66.2781,"MEAN_ANOMALY":293.87,"EPHEMERIS_TYPE":0,"CLASSIFICATION_TYPE":"U","NORAD_CAT_ID":53652,"ELEMENT_SET_NO":999,"REV_AT_EPOCH":7925,"BSTAR":0.00024235,"MEAN_MOTION_DOT":3.056e-5,"MEAN_MOTION_DDOT":0},{"OBJECT_NAME":"STARLINK-4390","OBJECT_ID":"2022-105F","EPOCH":"2024-02-07T03:39:57.611232","MEAN_MOTION":15.01257042,"ECCENTRICITY":0.0003046,"INCLINATION":97.6577,"RA_OF_ASC_NODE":280.822,"ARG_OF_PERICENTER":78.11,"MEAN_ANOMALY":282.0466,"EPHEMERIS_TYPE":0,"CLASSIFICATION_TYPE":"U","NORAD_CAT_ID":53653,"ELEMENT_SET_NO":999,"REV_AT_EPOCH":7925,"BSTAR":4.8287e-5,"MEAN_MOTION_DOT":5.61e-6,"MEAN_MOTION_DDOT":0},{"OBJECT_NAME":"STARLINK-4420","OBJECT_ID":"2022-105G","EPOCH":"2024-02-06T15:53:25.734624","MEAN_MOTION":15.01265274,"ECCENTRICITY":0.0003351,"INCLINATION":97.6534,"RA_OF_ASC_NODE":280.3804,"ARG_OF_PERICENTER":43.4646,"MEAN_ANOMALY":316.6842,"EPHEMERIS_TYPE":0,"CLASSIFICATION_TYPE":"U","NORAD_CAT_ID":53654,"ELEMENT_SET_NO":999,"REV_AT_EPOCH":7918,"BSTAR":3.6119e-5,"MEAN_MOTION_DOT":4.05e-6,"MEAN_MOTION_DDOT":0},{"OBJECT_NAME":"STARLINK-4470","OBJECT_ID":"2022-105H","EPOCH":"2024-02-06T15:58:45.701472","MEAN_MOTION":15.01265911,"ECCENTRICITY":0.0003748,"INCLINATION":97.653,"RA_OF_ASC_NODE":280.3873,"ARG_OF_PERICENTER":53.9213,"MEAN_ANOMALY":306.2358,"EPHEMERIS_TYPE":0,"CLASSIFICATION_TYPE":"U","NORAD_CAT_ID":53655,"ELEMENT_SET_NO":999,"REV_AT_EPOCH":7918,"BSTAR":0.00010843,"MEAN_MOTION_DOT":1.334e-5,"MEAN_MOTION_DDOT":0},{"OBJECT_NAME":"STARLINK-4466","OBJECT_ID":"2022-105J","EPOCH":"2024-02-06T15:45:28.195776","MEAN_MOTION":15.01235506,"ECCENTRICITY":0.0002131,"INCLINATION":97.6542,"RA_OF_ASC_NODE":280.376,"ARG_OF_PERICENTER":94.7565,"MEAN_ANOMALY":265.3903,"EPHEMERIS_TYPE":0,"CLASSIFICATION_TYPE":"U","NORAD_CAT_ID":53656,"ELEMENT_SET_NO":999,"REV_AT_EPOCH":7890,"BSTAR":-0.00026783,"MEAN_MOTION_DOT":-3.495e-5,"MEAN_MOTION_DDOT":0},{"OBJECT_NAME":"STARLINK-4469","OBJECT_ID":"2022-105K","EPOCH":"2024-02-06T15:56:05.680032","MEAN_MOTION":15.01265845,"ECCENTRICITY":0.00035,"INCLINATION":97.6529,"RA_OF_ASC_NODE":280.3835,"ARG_OF_PERICENTER":58.0007,"MEAN_ANOMALY":302.1557,"EPHEMERIS_TYPE":0,"CLASSIFICATION_TYPE":"U","NORAD_CAT_ID":53657,"ELEMENT_SET_NO":999,"REV_AT_EPOCH":7918,"BSTAR":0.00014457,"MEAN_MOTION_DOT":1.799e-5,"MEAN_MOTION_DDOT":0},{"OBJECT_NAME":"STARLINK-4452","OBJECT_ID":"2022-105L","EPOCH":"2024-02-06T15:48:05.849856","MEAN_MOTION":15.01262085,"ECCENTRICITY":0.000221,"INCLINATION":97.6543,"RA_OF_ASC_NODE":280.3734,"ARG_OF_PERICENTER":78.3007,"MEAN_ANOMALY":281.8465,"EPHEMERIS_TYPE":0,"CLASSIFICATION_TYPE":"U","NORAD_CAT_ID":53658,"ELEMENT_SET_NO":999,"REV_AT_EPOCH":7890,"BSTAR":-4.4536e-5,"MEAN_MOTION_DOT":-6.31e-6,"MEAN_MOTION_DDOT":0},{"OBJECT_NAME":"STARLINK-4463","OBJECT_ID":"2022-105M","EPOCH":"2024-02-06T15:51:06.726528","MEAN_MOTION":15.01265509,"ECCENTRICITY":0.0002533,"INCLINATION":97.655,"RA_OF_ASC_NODE":280.3805,"ARG_OF_PERICENTER":72.9792,"MEAN_ANOMALY":287.171,"EPHEMERIS_TYPE":0,"CLASSIFICATION_TYPE":"U","NORAD_CAT_ID":53659,"ELEMENT_SET_NO":999,"REV_AT_EPOCH":7918,"BSTAR":5.3202e-5,"MEAN_MOTION_DOT":6.24e-6,"MEAN_MOTION_DDOT":0},{"OBJECT_NAME":"STARLINK-4473","OBJECT_ID":"2022-105N","EPOCH":"2024-02-06T15:40:05.648160","MEAN_MOTION":15.01263193,"ECCENTRICITY":0.0001648,"INCLINATION":97.6546,"RA_OF_ASC_NODE":280.3646,"ARG_OF_PERICENTER":97.4428,"MEAN_ANOMALY":262.6983,"EPHEMERIS_TYPE":0,"CLASSIFICATION_TYPE":"U","NORAD_CAT_ID":53660,"ELEMENT_SET_NO":999,"REV_AT_EPOCH":7890,"BSTAR":3.1824e-5,"MEAN_MOTION_DOT":3.5e-6,"MEAN_MOTION_DDOT":0},{"OBJECT_NAME":"STARLINK-4472","OBJECT_ID":"2022-105P","EPOCH":"2024-02-06T15:43:06.820320","MEAN_MOTION":15.01273281,"ECCENTRICITY":0.0001894,"INCLINATION":97.6551,"RA_OF_ASC_NODE":280.3721,"ARG_OF_PERICENTER":97.217,"MEAN_ANOMALY":262.927,"EPHEMERIS_TYPE":0,"CLASSIFICATION_TYPE":"U","NORAD_CAT_ID":53661,"ELEMENT_SET_NO":999,"REV_AT_EPOCH":7890,"BSTAR":-1.0682e-5,"MEAN_MOTION_DOT":-1.96e-6,"MEAN_MOTION_DDOT":0},{"OBJECT_NAME":"STARLINK-4357","OBJECT_ID":"2022-105Q","EPOCH":"2024-02-06T15:35:06.756000","MEAN_MOTION":15.0126865,"ECCENTRICITY":0.0001343,"INCLINATION":97.6538,"RA_OF_ASC_NODE":280.3621,"ARG_OF_PERICENTER":96.4174,"MEAN_ANOMALY":263.7203,"EPHEMERIS_TYPE":0,"CLASSIFICATION_TYPE":"U","NORAD_CAT_ID":53662,"ELEMENT_SET_NO":999,"REV_AT_EPOCH":7890,"BSTAR":0.00017088,"MEAN_MOTION_DOT":2.137e-5,"MEAN_MOTION_DDOT":0},{"OBJECT_NAME":"STARLINK-4457","OBJECT_ID":"2022-105R","EPOCH":"2024-02-06T15:42:45.812160","MEAN_MOTION":15.01264399,"ECCENTRICITY":0.0002264,"INCLINATION":97.6538,"RA_OF_ASC_NODE":280.3673,"ARG_OF_PERICENTER":83.995,"MEAN_ANOMALY":276.1532,"EPHEMERIS_TYPE":0,"CLASSIFICATION_TYPE":"U","NORAD_CAT_ID":53663,"ELEMENT_SET_NO":999,"REV_AT_EPOCH":7890,"BSTAR":1.773e-5,"MEAN_MOTION_DOT":1.69e-6,"MEAN_MOTION_DDOT":0}]
